[{"OBJECT_NAME":"COSMOS 2567","OBJECT_ID":"2023-040A","EPOCH":"2026-03-09T23:38:00.899232","MEAN_MOTION":15.24128007,"ECCENTRICITY":0.00028166,"INCLINATION":97.5865,"RA_OF_ASC_NODE":353.8755,"ARG_OF_PERICENTER":82.0927,"MEAN_ANOMALY":278.063,"EPHEMERIS_TYPE":0,"CLASSIFICATION_TYPE":"U","NORAD_CAT_ID":55978,"ELEMENT_SET_NO":999,"REV_AT_EPOCH":16494,"BSTAR":0.00023360479,"MEAN_MOTION_DOT":5.606e-5,"MEAN_MOTION_DDOT":0},{"OBJECT_NAME":"BRO-16","OBJECT_ID":"2025-009AX","EPOCH":"2026-03-09T16:55:56.220384","MEAN_MOTION":15.23029012,"ECCENTRICITY":5.557e-5,"INCLINATION":97.4092,"RA_OF_ASC_NODE":150.4664,"ARG_OF_PERICENTER":332.7889,"MEAN_ANOMALY":27.3318,"EPHEMERIS_TYPE":0,"CLASSIFICATION_TYPE":"U","NORAD_CAT_ID":62654,"ELEMENT_SET_NO":999,"REV_AT_EPOCH":6365,"BSTAR":0.00026802153,"MEAN_MOTION_DOT":6.238e-5,"MEAN_MOTION_DDOT":0}]
